{
  "type": "FeatureCollection",
  "features": [
    {
      "type": "Feature",
      "properties": {
        "norad_id": 66908,
        "name": "1998-067XU",
        "group": "stations",
        "lat": -22.99350912353095,
        "lon": 2.695966072573821,
        "alt_km": 414.17913714114,
        "timestamp": "2025-12-08T13:49:30.594218+00:00",
        "meta_object_name": "1998-067XU",
        "meta_object_id": "1998-067XU",
        "meta_epoch": "2025-12-08T05:11:27.913056",
        "meta_mean_motion": 15.50722225,
        "meta_eccentricity": 0.00051815,
        "meta_inclination": 51.6294,
        "meta_ra_of_asc_node": 164.835,
        "meta_arg_of_pericenter": 200.0126,
        "meta_mean_anomaly": 160.0661,
        "meta_ephemeris_type": 0,
        "meta_classification_type": "U",
        "meta_norad_cat_id": 66908,
        "meta_element_set_no": 999,
        "meta_rev_at_epoch": 91,
        "meta_bstar": 0.001021887,
        "meta_mean_motion_dot": 0.00059851,
        "meta_mean_motion_ddot": 0,
        "tle_line1": "1 66908U 98067XU  25342.21629529  .00059851  00000+0  10219-2 0  9993",
        "tle_line2": "2 66908  51.6294 164.8350 0005181 200.0126 160.0661 15.50722225   912"
      },
      "geometry": {
        "type": "Point",
        "coordinates": [
          2.695966072573821,
          -22.99350912353095
        ]
      }
    },
    {
      "type": "Feature",
      "properties": {
        "norad_id": 66909,
        "name": "SILVERSAT",
        "group": "stations",
        "lat": -23.463793146336812,
        "lon": 3.1622962865487767,
        "alt_km": 413.94797612729417,
        "timestamp": "2025-12-08T13:49:30.594228+00:00",
        "meta_object_name": "SILVERSAT",
        "meta_object_id": "1998-067XV",
        "meta_epoch": "2025-12-07T19:54:33.887232",
        "meta_mean_motion": 15.50747382,
        "meta_eccentricity": 0.00050921,
        "meta_inclination": 51.6296,
        "meta_ra_of_asc_node": 166.752,
        "meta_arg_of_pericenter": 199.8533,
        "meta_mean_anomaly": 160.2258,
        "meta_ephemeris_type": 0,
        "meta_classification_type": "U",
        "meta_norad_cat_id": 66909,
        "meta_element_set_no": 999,
        "meta_rev_at_epoch": 85,
        "meta_bstar": 0.0014852493,
        "meta_mean_motion_dot": 0.00087585,
        "meta_mean_motion_ddot": 0,
        "tle_line1": "1 66909U 98067XV  25341.82955888  .00087585  00000+0  14852-2 0  9992",
        "tle_line2": "2 66909  51.6296 166.7520 0005092 199.8533 160.2258 15.50747382   851"
      },
      "geometry": {
        "type": "Point",
        "coordinates": [
          3.1622962865487767,
          -23.463793146336812
        ]
      }
    },
    {
      "type": "Feature",
      "properties": {
        "norad_id": 66910,
        "name": "1998-067XW",
        "group": "stations",
        "lat": -27.65660551795465,
        "lon": 7.567495759651496,
        "alt_km": 413.57856959656783,
        "timestamp": "2025-12-08T13:49:30.594238+00:00",
        "meta_object_name": "1998-067XW",
        "meta_object_id": "1998-067XW",
        "meta_epoch": "2025-12-07T21:26:00.150720",
        "meta_mean_motion": 15.50969965,
        "meta_eccentricity": 0.00060372,
        "meta_inclination": 51.6295,
        "meta_ra_of_asc_node": 166.4259,
        "meta_arg_of_pericenter": 184.7367,
        "meta_mean_anomaly": 175.3566,
        "meta_ephemeris_type": 0,
        "meta_classification_type": "U",
        "meta_norad_cat_id": 66910,
        "meta_element_set_no": 999,
        "meta_rev_at_epoch": 86,
        "meta_bstar": 0.0010283643,
        "meta_mean_motion_dot": 0.00060787,
        "meta_mean_motion_ddot": 0,
        "tle_line1": "1 66910U 98067XW  25341.89305730  .00060787  00000+0  10284-2 0  9996",
        "tle_line2": "2 66910  51.6295 166.4259 0006037 184.7367 175.3566 15.50969965   869"
      },
      "geometry": {
        "type": "Point",
        "coordinates": [
          7.567495759651496,
          -27.65660551795465
        ]
      }
    },
    {
      "type": "Feature",
      "properties": {
        "norad_id": 66911,
        "name": "1998-067XX",
        "group": "stations",
        "lat": -28.523361562716584,
        "lon": 8.539245889800231,
        "alt_km": 413.3324675420463,
        "timestamp": "2025-12-08T13:49:30.594248+00:00",
        "meta_object_name": "1998-067XX",
        "meta_object_id": "1998-067XX",
        "meta_epoch": "2025-12-07T22:58:32.522304",
        "meta_mean_motion": 15.51093228,
        "meta_eccentricity": 0.00059306,
        "meta_inclination": 51.6292,
        "meta_ra_of_asc_node": 166.1051,
        "meta_arg_of_pericenter": 185.6814,
        "meta_mean_anomaly": 174.4109,
        "meta_ephemeris_type": 0,
        "meta_classification_type": "U",
        "meta_norad_cat_id": 66911,
        "meta_element_set_no": 999,
        "meta_rev_at_epoch": 86,
        "meta_bstar": 0.0012532777,
        "meta_mean_motion_dot": 0.00074641,
        "meta_mean_motion_ddot": 0,
        "tle_line1": "1 66911U 98067XX  25341.95732086  .00074641  00000+0  12533-2 0  9995",
        "tle_line2": "2 66911  51.6292 166.1051 0005930 185.6814 174.4109 15.51093228   866"
      },
      "geometry": {
        "type": "Point",
        "coordinates": [
          8.539245889800231,
          -28.523361562716584
        ]
      }
    },
    {
      "type": "Feature",
      "properties": {
        "norad_id": 66912,
        "name": "1998-067XY",
        "group": "stations",
        "lat": -20.889946353643293,
        "lon": 0.6558177278113767,
        "alt_km": 414.621865653593,
        "timestamp": "2025-12-08T13:49:30.594258+00:00",
        "meta_object_name": "1998-067XY",
        "meta_object_id": "1998-067XY",
        "meta_epoch": "2025-12-07T23:00:53.074368",
        "meta_mean_motion": 15.50498763,
        "meta_eccentricity": 0.00051226,
        "meta_inclination": 51.6298,
        "meta_ra_of_asc_node": 166.116,
        "meta_arg_of_pericenter": 198.5004,
        "meta_mean_anomaly": 161.58,
        "meta_ephemeris_type": 0,
        "meta_classification_type": "U",
        "meta_norad_cat_id": 66912,
        "meta_element_set_no": 999,
        "meta_rev_at_epoch": 86,
        "meta_bstar": 0.00089233743,
        "meta_mean_motion_dot": 0.00051735,
        "meta_mean_motion_ddot": 0,
        "tle_line1": "1 66912U 98067XY  25341.95894762  .00051735  00000+0  89234-3 0  9998",
        "tle_line2": "2 66912  51.6298 166.1160 0005122 198.5004 161.5800 15.50498763   868"
      },
      "geometry": {
        "type": "Point",
        "coordinates": [
          0.6558177278113767,
          -20.889946353643293
        ]
      }
    }
  ]
}